RSP-03                  
1 65732U 98067XL  26037.28991110  .00686009  21986-3  14013-2 0  9991
2 65732  51.6170 208.8619 0006357 280.1616  79.8676 15.98793793 21944
YOTSUBA-KULOVER         
1 65941U 98067XN  26037.10416263  .00151125  00000+0  12015-2 0  9991
2 65941  51.6240 219.7347 0003941 234.5224 125.5406 15.70222897 18529
BOTAN                   
1 65942U 98067XP  26036.87431081  .00378529  00000+0  16889-2 0  9992
2 65942  51.6190 217.4098 0005660 259.2097 100.8268 15.82653618 18539
E-KAGAKU-1              
1 65943U 98067XQ  26036.78655566  .00154423  00000+0  12366-2 0  9990
2 65943  51.6264 221.3745 0003378 248.6455 111.4182 15.70041608 18472
HRC MONOBLOCK CAMERA    
1 66052U 98067XR  26036.93664100  .00059464  00000+0  75195-3 0  9992
2 66052  51.6280 225.3779 0000593 352.6283   7.4701 15.58940437 17434
HTV-X1                  
1 66174U 25241A   26037.21207386  .00012979  00000+0  24775-3 0  9990
2 66174  51.6316 227.9611 0011198  69.2605 290.9583 15.48432747   511
SZ-21 MODULE            
1 66515U 25246C   26037.02230367  .00042468  00000+0  40204-3 0  9999
2 66515  41.4762  37.9361 0003044 278.5646  81.4850 15.66161785 13104
SHENZHOU-22             
1 66645U 25272A   26037.28129305  .00026464  00000+0  32987-3 0  9996
2 66645  41.4679  39.0675 0005398  12.1977 347.8991 15.59282230267645
SOYUZ-MS 28             
1 66664U 25275A   26037.21207386  .00012979  00000+0  24775-3 0  9991
2 66664  51.6316 227.9611 0011198  69.2605 290.9583 15.48432747  1280
DUPLEX                  
1 66906U 98067XS  26037.09776143  .00040630  00000+0  62076-3 0  9998
2 66906  51.6285 227.2022 0001444  83.5184 276.5971 15.53999571 10210
1998-067XT              
1 66907U 98067XT  26036.77775358  .00130219  00000+0  15034-2 0  9994
2 66907  51.6265 227.3140 0002211 199.3308 160.7602 15.60974670 10180
1998-067XU              
1 66908U 98067XU  26036.77723452  .00132580  00000+0  15278-2 0  9996
2 66908  51.6270 227.3086 0002034 199.5208 160.5708 15.61013242 10185
