CCSDS_OMM_VERS = 2.0
CREATION_DATE  = 
ORIGINATOR     = 

OBJECT_NAME    = RSP-03
OBJECT_ID      = 1998-067XL
CENTER_NAME    = EARTH
REF_FRAME      = TEME
TIME_SYSTEM    = UTC
MEAN_ELEMENT_THEORY = SGP/SGP4

EPOCH          = 2026-02-06T06:57:28.319040
MEAN_MOTION    = 15.98793793
ECCENTRICITY   = .00063573
INCLINATION    = 51.6170
RA_OF_ASC_NODE = 208.8619
ARG_OF_PERICENTER = 280.1616
MEAN_ANOMALY   = 79.8676

EPHEMERIS_TYPE = 0
CLASSIFICATION_TYPE = U
NORAD_CAT_ID   = 65732
ELEMENT_SET_NO = 999
REV_AT_EPOCH   = 2194
BSTAR          = .14012881E-2
MEAN_MOTION_DOT = .686009E-2
MEAN_MOTION_DDOT = .21986227E-3

CCSDS_OMM_VERS = 2.0
CREATION_DATE  = 
ORIGINATOR     = 

OBJECT_NAME    = YOTSUBA-KULOVER
OBJECT_ID      = 1998-067XN
CENTER_NAME    = EARTH
REF_FRAME      = TEME
TIME_SYSTEM    = UTC
MEAN_ELEMENT_THEORY = SGP/SGP4

EPOCH          = 2026-02-06T02:29:59.651232
MEAN_MOTION    = 15.70222897
ECCENTRICITY   = .00039417
INCLINATION    = 51.6240
RA_OF_ASC_NODE = 219.7347
ARG_OF_PERICENTER = 234.5224
MEAN_ANOMALY   = 125.5406

EPHEMERIS_TYPE = 0
CLASSIFICATION_TYPE = U
NORAD_CAT_ID   = 65941
ELEMENT_SET_NO = 999
REV_AT_EPOCH   = 1852
BSTAR          = .12015396E-2
MEAN_MOTION_DOT = .151125E-2
MEAN_MOTION_DDOT = 0

CCSDS_OMM_VERS = 2.0
CREATION_DATE  = 
ORIGINATOR     = 

OBJECT_NAME    = BOTAN
OBJECT_ID      = 1998-067XP
CENTER_NAME    = EARTH
REF_FRAME      = TEME
TIME_SYSTEM    = UTC
MEAN_ELEMENT_THEORY = SGP/SGP4

EPOCH          = 2026-02-05T20:59:00.453984
MEAN_MOTION    = 15.82653618
ECCENTRICITY   = .00056606
INCLINATION    = 51.6190
RA_OF_ASC_NODE = 217.4098
ARG_OF_PERICENTER = 259.2097
MEAN_ANOMALY   = 100.8268

EPHEMERIS_TYPE = 0
CLASSIFICATION_TYPE = U
NORAD_CAT_ID   = 65942
ELEMENT_SET_NO = 999
REV_AT_EPOCH   = 1853
BSTAR          = .16888645E-2
MEAN_MOTION_DOT = .378529E-2
MEAN_MOTION_DDOT = 0

CCSDS_OMM_VERS = 2.0
CREATION_DATE  = 
ORIGINATOR     = 

OBJECT_NAME    = E-KAGAKU-1
OBJECT_ID      = 1998-067XQ
CENTER_NAME    = EARTH
REF_FRAME      = TEME
TIME_SYSTEM    = UTC
MEAN_ELEMENT_THEORY = SGP/SGP4

EPOCH          = 2026-02-05T18:52:38.409024
MEAN_MOTION    = 15.70041608
ECCENTRICITY   = .00033789
INCLINATION    = 51.6264
RA_OF_ASC_NODE = 221.3745
ARG_OF_PERICENTER = 248.6455
MEAN_ANOMALY   = 111.4182

EPHEMERIS_TYPE = 0
CLASSIFICATION_TYPE = U
NORAD_CAT_ID   = 65943
ELEMENT_SET_NO = 999
REV_AT_EPOCH   = 1847
BSTAR          = .12365614E-2
MEAN_MOTION_DOT = .154423E-2
MEAN_MOTION_DDOT = 0

CCSDS_OMM_VERS = 2.0
CREATION_DATE  = 
ORIGINATOR     = 

OBJECT_NAME    = HRC MONOBLOCK CAMERA
OBJECT_ID      = 1998-067XR
CENTER_NAME    = EARTH
REF_FRAME      = TEME
TIME_SYSTEM    = UTC
MEAN_ELEMENT_THEORY = SGP/SGP4

EPOCH          = 2026-02-05T22:28:45.782400
MEAN_MOTION    = 15.58940437
ECCENTRICITY   = .0000593
INCLINATION    = 51.6280
RA_OF_ASC_NODE = 225.3779
ARG_OF_PERICENTER = 352.6283
MEAN_ANOMALY   = 7.4701

EPHEMERIS_TYPE = 0
CLASSIFICATION_TYPE = U
NORAD_CAT_ID   = 66052
ELEMENT_SET_NO = 999
REV_AT_EPOCH   = 1743
BSTAR          = .75195E-3
MEAN_MOTION_DOT = .59464E-3
MEAN_MOTION_DDOT = 0

CCSDS_OMM_VERS = 2.0
CREATION_DATE  = 
ORIGINATOR     = 

OBJECT_NAME    = HTV-X1
OBJECT_ID      = 2025-241A
CENTER_NAME    = EARTH
REF_FRAME      = TEME
TIME_SYSTEM    = UTC
MEAN_ELEMENT_THEORY = SGP/SGP4

EPOCH          = 2026-02-06T05:05:23.181504
MEAN_MOTION    = 15.48432747
ECCENTRICITY   = .00111989
INCLINATION    = 51.6316
RA_OF_ASC_NODE = 227.9611
ARG_OF_PERICENTER = 69.2605
MEAN_ANOMALY   = 290.9583

EPHEMERIS_TYPE = 0
CLASSIFICATION_TYPE = U
NORAD_CAT_ID   = 66174
ELEMENT_SET_NO = 999
REV_AT_EPOCH   = 51
BSTAR          = .24775323E-3
MEAN_MOTION_DOT = .12979E-3
MEAN_MOTION_DDOT = 0

CCSDS_OMM_VERS = 2.0
CREATION_DATE  = 
ORIGINATOR     = 

OBJECT_NAME    = SZ-21 MODULE
OBJECT_ID      = 2025-246C
CENTER_NAME    = EARTH
REF_FRAME      = TEME
TIME_SYSTEM    = UTC
MEAN_ELEMENT_THEORY = SGP/SGP4

EPOCH          = 2026-02-06T00:32:07.037088
MEAN_MOTION    = 15.66161785
ECCENTRICITY   = .00030441
INCLINATION    = 41.4762
RA_OF_ASC_NODE = 37.9361
ARG_OF_PERICENTER = 278.5646
MEAN_ANOMALY   = 81.4850

EPHEMERIS_TYPE = 0
CLASSIFICATION_TYPE = U
NORAD_CAT_ID   = 66515
ELEMENT_SET_NO = 999
REV_AT_EPOCH   = 1310
BSTAR          = .40203738E-3
MEAN_MOTION_DOT = .42468E-3
MEAN_MOTION_DDOT = 0

CCSDS_OMM_VERS = 2.0
CREATION_DATE  = 
ORIGINATOR     = 

OBJECT_NAME    = SHENZHOU-22
OBJECT_ID      = 2025-272A
CENTER_NAME    = EARTH
REF_FRAME      = TEME
TIME_SYSTEM    = UTC
MEAN_ELEMENT_THEORY = SGP/SGP4

EPOCH          = 2026-02-06T06:45:03.719520
MEAN_MOTION    = 15.59282230
ECCENTRICITY   = .0005398
INCLINATION    = 41.4679
RA_OF_ASC_NODE = 39.0675
ARG_OF_PERICENTER = 12.1977
MEAN_ANOMALY   = 347.8991

EPHEMERIS_TYPE = 0
CLASSIFICATION_TYPE = U
NORAD_CAT_ID   = 66645
ELEMENT_SET_NO = 999
REV_AT_EPOCH   = 26764
BSTAR          = .32987475E-3
MEAN_MOTION_DOT = .26464E-3
MEAN_MOTION_DDOT = 0

CCSDS_OMM_VERS = 2.0
CREATION_DATE  = 
ORIGINATOR     = 

OBJECT_NAME    = SOYUZ-MS 28
OBJECT_ID      = 2025-275A
CENTER_NAME    = EARTH
REF_FRAME      = TEME
TIME_SYSTEM    = UTC
MEAN_ELEMENT_THEORY = SGP/SGP4

EPOCH          = 2026-02-06T05:05:23.181504
MEAN_MOTION    = 15.48432747
ECCENTRICITY   = .00111989
INCLINATION    = 51.6316
RA_OF_ASC_NODE = 227.9611
ARG_OF_PERICENTER = 69.2605
MEAN_ANOMALY   = 290.9583

EPHEMERIS_TYPE = 0
CLASSIFICATION_TYPE = U
NORAD_CAT_ID   = 66664
ELEMENT_SET_NO = 999
REV_AT_EPOCH   = 128
BSTAR          = .24775323E-3
MEAN_MOTION_DOT = .12979E-3
MEAN_MOTION_DDOT = 0

CCSDS_OMM_VERS = 2.0
CREATION_DATE  = 
ORIGINATOR     = 

OBJECT_NAME    = DUPLEX
OBJECT_ID      = 1998-067XS
CENTER_NAME    = EARTH
REF_FRAME      = TEME
TIME_SYSTEM    = UTC
MEAN_ELEMENT_THEORY = SGP/SGP4

EPOCH          = 2026-02-06T02:20:46.587552
MEAN_MOTION    = 15.53999571
ECCENTRICITY   = .00014445
INCLINATION    = 51.6285
RA_OF_ASC_NODE = 227.2022
ARG_OF_PERICENTER = 83.5184
MEAN_ANOMALY   = 276.5971

EPHEMERIS_TYPE = 0
CLASSIFICATION_TYPE = U
NORAD_CAT_ID   = 66906
ELEMENT_SET_NO = 999
REV_AT_EPOCH   = 1021
BSTAR          = .62076121E-3
MEAN_MOTION_DOT = .4063E-3
MEAN_MOTION_DDOT = 0

CCSDS_OMM_VERS = 2.0
CREATION_DATE  = 
ORIGINATOR     = 

OBJECT_NAME    = 1998-067XT
OBJECT_ID      = 1998-067XT
CENTER_NAME    = EARTH
REF_FRAME      = TEME
TIME_SYSTEM    = UTC
MEAN_ELEMENT_THEORY = SGP/SGP4

EPOCH          = 2026-02-05T18:39:57.909312
MEAN_MOTION    = 15.60974670
ECCENTRICITY   = .00022119
INCLINATION    = 51.6265
RA_OF_ASC_NODE = 227.3140
ARG_OF_PERICENTER = 199.3308
MEAN_ANOMALY   = 160.7602

EPHEMERIS_TYPE = 0
CLASSIFICATION_TYPE = U
NORAD_CAT_ID   = 66907
ELEMENT_SET_NO = 999
REV_AT_EPOCH   = 1018
BSTAR          = .15033633E-2
MEAN_MOTION_DOT = .130219E-2
MEAN_MOTION_DDOT = 0

CCSDS_OMM_VERS = 2.0
CREATION_DATE  = 
ORIGINATOR     = 

OBJECT_NAME    = 1998-067XU
OBJECT_ID      = 1998-067XU
CENTER_NAME    = EARTH
REF_FRAME      = TEME
TIME_SYSTEM    = UTC
MEAN_ELEMENT_THEORY = SGP/SGP4

EPOCH          = 2026-02-05T18:39:13.062528
MEAN_MOTION    = 15.61013242
ECCENTRICITY   = .00020347
INCLINATION    = 51.6270
RA_OF_ASC_NODE = 227.3086
ARG_OF_PERICENTER = 199.5208
MEAN_ANOMALY   = 160.5708

EPHEMERIS_TYPE = 0
CLASSIFICATION_TYPE = U
NORAD_CAT_ID   = 66908
ELEMENT_SET_NO = 999
REV_AT_EPOCH   = 1018
BSTAR          = .15278063E-2
MEAN_MOTION_DOT = .13258E-2
MEAN_MOTION_DDOT = 0

